[{"OBJECT_NAME":"UK-DMC 2","OBJECT_ID":"2009-041C","EPOCH":"2026-03-09T23:23:59.777088","MEAN_MOTION":14.75853536,"ECCENTRICITY":0.00010983,"INCLINATION":97.8657,"RA_OF_ASC_NODE":206.4708,"ARG_OF_PERICENTER":90.2478,"MEAN_ANOMALY":269.8858,"EPHEMERIS_TYPE":0,"CLASSIFICATION_TYPE":"U","NORAD_CAT_ID":35683,"ELEMENT_SET_NO":999,"REV_AT_EPOCH":89193,"BSTAR":0.00020221401,"MEAN_MOTION_DOT":1.338e-5,"MEAN_MOTION_DDOT":0},{"OBJECT_NAME":"THORAD AGENA D DEB","OBJECT_ID":"1970-025QQ","EPOCH":"2026-03-09T22:16:40.552032","MEAN_MOTION":14.72649323,"ECCENTRICITY":0.00362657,"INCLINATION":99.9876,"RA_OF_ASC_NODE":49.5884,"ARG_OF_PERICENTER":302.5845,"MEAN_ANOMALY":118.7127,"EPHEMERIS_TYPE":0,"CLASSIFICATION_TYPE":"U","NORAD_CAT_ID":26821,"ELEMENT_SET_NO":999,"REV_AT_EPOCH":69245,"BSTAR":0.0043433352,"MEAN_MOTION_DOT":0.00028003,"MEAN_MOTION_DDOT":0}]
